{"fetched_at":"2026-03-29T16:36:15Z","count":15609,"tles":[{"name":"STARLINK-11585 [DTC]","line1":"1 63309U 25057C   26087.85391247  .00237872  00000+0  17998-2 0  9996","line2":"2 63309  43.0004 148.8370 0001043 357.6773   2.4089 15.70905820 60221","category":"Starlink"}]}